{"type":"FeatureCollection","features":[{"type":"Feature","properties":{"NAME":"Province of New Hampshire","SOURCE":"StuffApp hand overlay: modern state outlines clipped at an approximate Proclamation Line"},"geometry":{"type":"Polygon","coordinates":[[[-71.059,45.0],[-70.973,43.571],[-70.952,43.551],[-70.988,43.38],[-70.808,43.224],[-70.83,43.129],[-70.704,43.059],[-70.819,42.872],[-70.848,42.861],[-70.901,42.887],[-71.031,42.859],[-71.063,42.806],[-71.131,42.821],[-71.185,42.791],[-71.181,42.737],[-71.257,42.736],[-71.293,42.697],[-72.459,42.727],[-72.491,42.773],[-72.513,42.764],[-72.556,42.852],[-72.52,42.963],[-72.474,42.972],[-72.445,43.01],[-72.466,43.055],[-72.434,43.083],[-72.452,43.139],[-72.438,43.258],[-72.395,43.313],[-72.416,43.364],[-72.38,43.48],[-72.398,43.51],[-72.38,43.574],[-72.326,43.602],[-72.305,43.696],[-72.273,43.734],[-72.204,43.771],[-72.186,43.864],[-72.118,43.921],[-72.118,43.994],[-72.032,44.091],[-72.068,44.19],[-72.046,44.239],[-72.068,44.268],[-72.032,44.321],[-71.813,44.355],[-71.795,44.4],[-71.709,44.412],[-71.634,44.484],[-71.576,44.503],[-71.598,44.553],[-71.558,44.565],[-71.551,44.627],[-71.626,44.747],[-71.494,44.912],[-71.54,44.988],[-71.059,45.0]]]}},{"type":"Feature","properties":{"NAME":"Province of Massachusetts Bay","SOURCE":"StuffApp hand overlay: modern state outlines clipped at an approximate Proclamation Line","LABEL_AT":[42.4,-71.9]},"geometry":{"type":"MultiPolygon","coordinates":[[[[-70.018,41.369],[-69.961,41.279],[-69.965,41.253],[-70.0,41.239],[-70.119,41.243],[-70.266,41.294],[-70.277,41.31],[-70.23,41.29],[-70.126,41.294],[-70.062,41.309],[-70.018,41.369]]],[[[-70.564,41.469],[-70.539,41.409],[-70.485,41.386],[-70.449,41.42],[-70.453,41.348],[-70.711,41.341],[-70.776,41.301],[-70.833,41.353],[-70.769,41.353],[-70.7,41.431],[-70.604,41.482],[-70.564,41.469]]],[[[-71.257,42.736],[-71.181,42.737],[-71.185,42.791],[-71.131,42.821],[-71.063,42.806],[-71.031,42.859],[-70.901,42.887],[-70.848,42.861],[-70.819,42.872],[-70.779,42.693],[-70.69,42.653],[-70.647,42.689],[-70.596,42.66],[-70.654,42.583],[-70.873,42.547],[-70.83,42.504],[-70.894,42.461],[-70.919,42.468],[-70.937,42.418],[-70.952,42.453],[-70.991,42.407],[-70.952,42.344],[-70.998,42.352],[-71.016,42.328],[-70.988,42.306],[-71.006,42.283],[-70.955,42.271],[-70.934,42.302],[-70.883,42.309],[-70.851,42.268],[-70.722,42.208],[-70.715,42.169],[-70.639,42.089],[-70.668,42.012],[-70.711,42.008],[-70.7,41.987],[-70.553,41.93],[-70.525,41.858],[-70.542,41.816],[-70.413,41.744],[-70.259,41.714],[-70.191,41.752],[-70.026,41.787],[-70.004,41.809],[-70.008,41.877],[-70.029,41.929],[-70.076,41.902],[-70.094,42.033],[-70.148,42.062],[-70.18,42.056],[-70.198,42.023],[-70.237,42.073],[-70.115,42.067],[-70.033,42.017],[-69.936,41.809],[-69.929,41.692],[-69.99,41.543],[-70.015,41.551],[-69.972,41.647],[-69.997,41.667],[-70.245,41.628],[-70.352,41.635],[-70.438,41.605],[-70.492,41.552],[-70.611,41.543],[-70.79,41.446],[-70.948,41.409],[-70.657,41.543],[-70.625,41.713],[-70.718,41.736],[-70.718,41.685],[-70.743,41.697],[-70.758,41.654],[-70.912,41.62],[-70.952,41.515],[-71.12,41.498],[-71.131,41.66],[-71.196,41.675],[-71.26,41.752],[-71.329,41.78],[-71.339,41.898],[-71.382,41.893],[-71.382,42.019],[-71.799,42.008],[-71.802,42.023],[-72.757,42.036],[-72.768,42.003],[-72.818,41.998],[-72.815,42.036],[-73.486,42.05],[-73.507,42.086],[-73.263,42.746],[-71.293,42.697],[-71.257,42.736]]],[[[-68.881,43.821],[-68.913,43.853],[-68.884,43.885],[-68.881,43.821]]],[[[-68.891,44.334],[-68.917,44.243],[-68.952,44.218],[-68.967,44.252],[-68.92,44.31],[-68.913,44.365],[-68.881,44.387],[-68.859,44.364],[-68.891,44.334]]],[[[-70.808,43.224],[-70.988,43.38],[-70.952,43.551],[-70.973,43.571],[-71.059,45.0],[-67.067,45.0],[-67.039,44.945],[-66.985,44.912],[-66.982,44.811],[-67.025,44.768],[-67.061,44.77],[-67.19,44.645],[-67.276,44.624],[-67.262,44.605],[-67.316,44.598],[-67.294,44.634],[-67.309,44.707],[-67.405,44.681],[-67.362,44.632],[-67.405,44.595],[-67.445,44.606],[-67.492,44.556],[-67.574,44.561],[-67.567,44.531],[-67.51,44.497],[-67.588,44.448],[-67.657,44.536],[-67.743,44.497],[-67.768,44.548],[-67.854,44.419],[-67.879,44.436],[-67.901,44.394],[-67.915,44.43],[-67.987,44.387],[-68.005,44.41],[-68.048,44.331],[-68.105,44.364],[-68.105,44.395],[-68.181,44.385],[-68.174,44.328],[-68.231,44.267],[-68.191,44.239],[-68.317,44.225],[-68.4,44.253],[-68.457,44.345],[-68.357,44.393],[-68.389,44.431],[-68.436,44.401],[-68.428,44.439],[-68.464,44.437],[-68.461,44.378],[-68.479,44.378],[-68.479,44.433],[-68.565,44.385],[-68.547,44.355],[-68.568,44.318],[-68.518,44.26],[-68.529,44.222],[-68.611,44.156],[-68.579,44.146],[-68.622,44.12],[-68.583,44.071],[-68.601,44.012],[-68.658,44.004],[-68.658,44.127],[-68.719,44.166],[-68.733,44.221],[-68.68,44.265],[-68.748,44.299],[-68.726,44.321],[-68.827,44.312],[-68.823,44.409],[-68.784,44.447],[-68.78,44.49],[-68.805,44.502],[-68.881,44.428],[-68.92,44.456],[-68.945,44.429],[-68.999,44.425],[-68.949,44.356],[-69.1,44.105],[-69.031,44.079],[-69.078,44.055],[-69.042,44.006],[-69.078,43.973],[-69.175,43.977],[-69.222,43.915],[-69.275,43.914],[-69.283,43.864],[-69.322,43.857],[-69.297,43.933],[-69.329,43.946],[-69.34,43.92],[-69.383,43.909],[-69.365,43.965],[-69.43,43.957],[-69.426,43.912],[-69.484,43.881],[-69.502,43.838],[-69.545,43.882],[-69.552,43.841],[-69.606,43.814],[-69.649,43.836],[-69.66,43.779],[-69.706,43.823],[-69.753,43.744],[-69.853,43.705],[-69.871,43.776],[-69.929,43.78],[-70.0,43.711],[-70.072,43.714],[-70.097,43.672],[-70.169,43.675],[-70.205,43.633],[-70.216,43.59],[-70.198,43.565],[-70.227,43.538],[-70.273,43.563],[-70.352,43.536],[-70.385,43.497],[-70.363,43.439],[-70.428,43.389],[-70.417,43.361],[-70.553,43.322],[-70.593,43.238],[-70.575,43.222],[-70.672,43.071],[-70.704,43.059],[-70.83,43.129],[-70.808,43.224]]],[[[-68.769,44.07],[-68.809,44.036],[-68.873,44.025],[-68.917,44.046],[-68.899,44.067],[-68.909,44.11],[-68.945,44.113],[-68.827,44.187],[-68.787,44.144],[-68.82,44.137],[-68.769,44.07]]],[[[-68.439,44.116],[-68.5,44.16],[-68.475,44.231],[-68.385,44.155],[-68.439,44.116]]],[[[-68.321,44.199],[-68.346,44.169],[-68.371,44.193],[-68.321,44.199]]],[[[-68.78,44.203],[-68.841,44.236],[-68.791,44.238],[-68.78,44.203]]],[[[-68.479,44.32],[-68.529,44.345],[-68.518,44.381],[-68.479,44.32]]]]}},{"type":"Feature","properties":{"NAME":"Colony of Rhode Island and Providence Plantations","SOURCE":"StuffApp hand overlay: modern state outlines clipped at an approximate Proclamation Line"},"geometry":{"type":"MultiPolygon","coordinates":[[[[-71.551,41.151],[-71.612,41.16],[-71.573,41.229],[-71.555,41.217],[-71.551,41.151]]],[[[-71.375,41.573],[-71.361,41.483],[-71.4,41.461],[-71.379,41.505],[-71.393,41.524],[-71.375,41.573]]],[[[-71.192,41.458],[-71.207,41.601],[-71.242,41.62],[-71.235,41.483],[-71.296,41.485],[-71.303,41.455],[-71.339,41.449],[-71.343,41.496],[-71.257,41.636],[-71.196,41.675],[-71.131,41.66],[-71.12,41.498],[-71.192,41.458]]],[[[-71.364,41.661],[-71.346,41.667],[-71.307,41.622],[-71.325,41.616],[-71.364,41.661]]],[[[-71.799,41.417],[-71.799,42.008],[-71.382,42.019],[-71.382,41.893],[-71.339,41.898],[-71.329,41.78],[-71.224,41.711],[-71.235,41.672],[-71.285,41.637],[-71.307,41.673],[-71.293,41.703],[-71.39,41.784],[-71.372,41.673],[-71.451,41.688],[-71.408,41.654],[-71.404,41.59],[-71.447,41.58],[-71.418,41.535],[-71.418,41.473],[-71.483,41.371],[-71.856,41.306],[-71.831,41.345],[-71.842,41.41],[-71.799,41.417]]]]}},{"type":"Feature","properties":{"NAME":"Colony of Connecticut","SOURCE":"StuffApp hand overlay: modern state outlines clipped at an approximate Proclamation Line"},"geometry":{"type":"Polygon","coordinates":[[[-73.486,42.05],[-72.815,42.036],[-72.818,41.998],[-72.768,42.003],[-72.757,42.036],[-71.802,42.023],[-71.799,41.417],[-71.842,41.41],[-71.831,41.345],[-71.86,41.32],[-71.946,41.338],[-72.133,41.299],[-72.19,41.323],[-72.212,41.291],[-72.387,41.261],[-72.452,41.279],[-72.549,41.25],[-72.664,41.269],[-72.689,41.247],[-72.753,41.267],[-72.897,41.243],[-72.908,41.295],[-73.008,41.21],[-73.051,41.21],[-73.13,41.147],[-73.177,41.167],[-73.263,41.117],[-73.371,41.104],[-73.353,41.085],[-73.389,41.058],[-73.493,41.048],[-73.658,40.985],[-73.654,41.013],[-73.726,41.101],[-73.482,41.212],[-73.55,41.296],[-73.486,42.05]]]}},{"type":"Feature","properties":{"NAME":"Province of New York","SOURCE":"StuffApp hand overlay: modern state outlines clipped at an approximate Proclamation Line"},"geometry":{"type":"MultiPolygon","coordinates":[[[[-74.261,40.502],[-74.25,40.545],[-74.218,40.559],[-74.204,40.631],[-74.071,40.661],[-74.053,40.603],[-74.085,40.57],[-74.261,40.502]]],[[[-72.086,41.059],[-72.143,41.098],[-72.125,41.115],[-72.086,41.102],[-72.086,41.059]]],[[[-72.158,41.197],[-72.201,41.16],[-72.215,41.183],[-72.158,41.197]]],[[[-72.036,41.255],[-72.025,41.271],[-71.928,41.29],[-72.003,41.253],[-72.036,41.255]]],[[[-71.54,44.988],[-71.494,44.912],[-71.626,44.747],[-71.551,44.627],[-71.558,44.565],[-71.598,44.553],[-71.576,44.503],[-71.634,44.484],[-71.709,44.412],[-71.795,44.4],[-71.813,44.355],[-72.032,44.321],[-72.068,44.268],[-72.046,44.239],[-72.068,44.19],[-72.032,44.091],[-72.118,43.994],[-72.118,43.921],[-72.186,43.864],[-72.204,43.771],[-72.273,43.734],[-72.305,43.696],[-72.326,43.602],[-72.38,43.574],[-72.398,43.51],[-72.38,43.48],[-72.416,43.364],[-72.395,43.313],[-72.438,43.258],[-72.452,43.139],[-72.434,43.083],[-72.466,43.055],[-72.445,43.01],[-72.474,42.972],[-72.52,42.963],[-72.556,42.852],[-72.513,42.764],[-72.491,42.773],[-72.459,42.727],[-73.263,42.746],[-73.507,42.086],[-73.486,42.05],[-73.55,41.296],[-73.482,41.212],[-73.726,41.101],[-73.654,41.013],[-73.658,40.985],[-73.758,40.913],[-73.766,40.845],[-73.812,40.846],[-73.78,40.795],[-73.715,40.87],[-73.676,40.857],[-73.64,40.893],[-73.5,40.918],[-73.486,40.946],[-73.407,40.92],[-73.4,40.956],[-73.231,40.905],[-73.148,40.929],[-73.141,40.966],[-72.635,40.982],[-72.477,41.052],[-72.355,41.14],[-72.28,41.158],[-72.237,41.157],[-72.334,41.107],[-72.28,41.08],[-72.262,41.042],[-72.201,41.032],[-72.161,41.054],[-72.104,40.992],[-71.967,41.048],[-71.96,41.072],[-71.856,41.071],[-71.874,41.053],[-72.395,40.866],[-73.055,40.666],[-73.557,40.582],[-73.776,40.59],[-73.942,40.543],[-73.931,40.576],[-74.013,40.574],[-74.003,40.596],[-74.042,40.629],[-74.017,40.659],[-74.046,40.69],[-73.967,40.821],[-73.895,40.981],[-73.906,40.998],[-74.695,41.358],[-74.742,41.405],[-74.738,41.431],[-74.896,41.44],[-74.889,41.456],[-74.943,41.484],[-74.982,41.48],[-75.076,41.606],[-75.047,41.616],[-75.054,41.753],[-75.104,41.771],[-75.076,41.798],[-75.112,41.84],[-75.262,41.866],[-75.291,41.952],[-75.359,41.999],[-76.184,41.998],[-75.3,42.4],[-74.6,43.2],[-73.6,44.2],[-73.35,45.0],[-71.522,45.0],[-71.54,44.988]]]]}},{"type":"Feature","properties":{"NAME":"Province of New Jersey","SOURCE":"StuffApp hand overlay: modern state outlines clipped at an approximate Proclamation Line"},"geometry":{"type":"Polygon","coordinates":[[[-75.56,39.63],[-75.46,39.766],[-75.356,39.84],[-75.13,39.9],[-75.13,39.959],[-74.925,40.071],[-74.86,40.084],[-74.817,40.127],[-74.781,40.121],[-74.72,40.154],[-74.943,40.341],[-74.968,40.4],[-75.058,40.416],[-75.065,40.536],[-75.101,40.568],[-75.194,40.576],[-75.201,40.647],[-75.176,40.673],[-75.205,40.692],[-75.173,40.778],[-75.133,40.773],[-75.051,40.871],[-75.137,40.974],[-74.968,41.088],[-74.982,41.109],[-74.882,41.181],[-74.832,41.287],[-74.753,41.346],[-74.695,41.358],[-73.906,40.998],[-73.895,40.981],[-74.024,40.709],[-74.071,40.661],[-74.204,40.631],[-74.218,40.559],[-74.25,40.545],[-74.261,40.502],[-74.261,40.465],[-74.193,40.441],[-74.135,40.456],[-73.999,40.411],[-73.985,40.449],[-73.981,40.28],[-74.031,40.123],[-74.096,39.762],[-74.239,39.555],[-74.311,39.506],[-74.3,39.479],[-74.336,39.432],[-74.638,39.221],[-74.792,38.992],[-74.864,38.94],[-74.972,38.94],[-74.886,39.158],[-75.047,39.215],[-75.112,39.213],[-75.137,39.182],[-75.252,39.3],[-75.288,39.29],[-75.467,39.439],[-75.535,39.461],[-75.514,39.581],[-75.56,39.63]]]}},{"type":"Feature","properties":{"NAME":"Province of Pennsylvania","SOURCE":"StuffApp hand overlay: modern state outlines clipped at an approximate Proclamation Line"},"geometry":{"type":"Polygon","coordinates":[[[-76.184,41.998],[-75.359,41.999],[-75.291,41.952],[-75.262,41.866],[-75.112,41.84],[-75.076,41.798],[-75.104,41.771],[-75.054,41.753],[-75.047,41.616],[-75.076,41.606],[-74.982,41.48],[-74.943,41.484],[-74.889,41.456],[-74.896,41.44],[-74.738,41.431],[-74.742,41.405],[-74.695,41.358],[-74.753,41.346],[-74.832,41.287],[-74.882,41.181],[-74.982,41.109],[-74.968,41.088],[-75.137,40.974],[-75.051,40.871],[-75.133,40.773],[-75.173,40.778],[-75.205,40.692],[-75.176,40.673],[-75.201,40.647],[-75.194,40.576],[-75.101,40.568],[-75.065,40.536],[-75.058,40.416],[-74.968,40.4],[-74.943,40.341],[-74.72,40.154],[-74.781,40.121],[-74.817,40.127],[-74.86,40.084],[-74.925,40.071],[-75.13,39.959],[-75.13,39.9],[-75.356,39.84],[-75.417,39.802],[-75.499,39.834],[-75.664,39.822],[-75.79,39.722],[-79.46,39.721],[-79.4,39.9],[-78.8,40.6],[-77.8,41.3],[-76.184,41.998]]]}},{"type":"Feature","properties":{"NAME":"Delaware Colony","SOURCE":"StuffApp hand overlay: modern state outlines clipped at an approximate Proclamation Line"},"geometry":{"type":"Polygon","coordinates":[[[-75.664,39.822],[-75.499,39.834],[-75.417,39.802],[-75.478,39.713],[-75.611,39.622],[-75.564,39.562],[-75.589,39.461],[-75.402,39.255],[-75.402,39.067],[-75.32,38.988],[-75.313,38.925],[-75.191,38.807],[-75.133,38.782],[-75.097,38.803],[-75.051,38.451],[-75.693,38.46],[-75.79,39.722],[-75.664,39.822]]]}},{"type":"Feature","properties":{"NAME":"Province of Maryland","SOURCE":"StuffApp hand overlay: modern state outlines clipped at an approximate Proclamation Line"},"geometry":{"type":"MultiPolygon","coordinates":[[[[-76.02,38.039],[-75.98,38.005],[-75.995,37.953],[-76.045,37.953],[-76.048,38.015],[-76.02,38.039]]],[[[-76.023,38.178],[-76.005,38.077],[-76.059,38.095],[-76.045,38.118],[-76.095,38.125],[-76.088,38.193],[-76.048,38.204],[-76.023,38.178]]],[[[-76.397,38.771],[-76.379,38.788],[-76.361,38.749],[-76.397,38.771]]],[[[-79.46,39.721],[-75.79,39.722],[-75.693,38.46],[-75.051,38.451],[-75.087,38.324],[-75.241,38.027],[-75.625,37.994],[-75.646,37.947],[-75.715,37.976],[-75.783,37.973],[-75.894,37.917],[-75.873,38.035],[-75.812,38.059],[-75.873,38.061],[-75.826,38.134],[-75.901,38.141],[-75.944,38.113],[-75.959,38.137],[-75.941,38.187],[-75.847,38.21],[-75.869,38.244],[-75.901,38.232],[-75.916,38.263],[-75.862,38.36],[-75.916,38.339],[-75.941,38.247],[-75.969,38.246],[-76.009,38.312],[-75.969,38.32],[-75.973,38.366],[-76.002,38.374],[-76.048,38.304],[-76.027,38.28],[-76.059,38.227],[-76.074,38.252],[-76.167,38.243],[-76.257,38.325],[-76.249,38.362],[-76.336,38.492],[-76.264,38.504],[-76.246,38.537],[-76.275,38.531],[-76.307,38.575],[-76.278,38.61],[-76.17,38.629],[-76.167,38.598],[-76.027,38.566],[-76.084,38.625],[-76.199,38.67],[-76.257,38.737],[-76.275,38.713],[-76.318,38.73],[-76.321,38.679],[-76.346,38.686],[-76.336,38.773],[-76.271,38.852],[-76.221,38.813],[-76.192,38.822],[-76.203,38.928],[-76.232,38.943],[-76.293,38.902],[-76.336,38.906],[-76.332,38.865],[-76.375,38.85],[-76.361,38.939],[-76.303,39.026],[-76.278,38.982],[-76.203,38.973],[-76.163,39.0],[-76.185,39.046],[-76.145,39.093],[-76.203,39.085],[-76.199,39.014],[-76.242,39.029],[-76.232,39.083],[-76.278,39.146],[-76.221,39.262],[-76.178,39.298],[-76.185,39.319],[-76.109,39.372],[-76.002,39.367],[-76.041,39.388],[-75.977,39.448],[-76.013,39.453],[-75.969,39.558],[-76.095,39.537],[-76.117,39.496],[-76.059,39.448],[-76.224,39.353],[-76.249,39.379],[-76.224,39.426],[-76.253,39.45],[-76.285,39.368],[-76.257,39.339],[-76.282,39.299],[-76.303,39.382],[-76.357,39.394],[-76.336,39.305],[-76.364,39.312],[-76.386,39.276],[-76.343,39.257],[-76.443,39.195],[-76.49,39.202],[-76.576,39.264],[-76.526,39.178],[-76.429,39.132],[-76.44,39.053],[-76.393,39.012],[-76.476,38.973],[-76.45,38.941],[-76.519,38.863],[-76.497,38.817],[-76.558,38.768],[-76.526,38.725],[-76.519,38.539],[-76.386,38.361],[-76.418,38.323],[-76.468,38.329],[-76.436,38.293],[-76.404,38.311],[-76.375,38.299],[-76.4,38.259],[-76.321,38.139],[-76.339,38.12],[-76.321,38.037],[-76.422,38.106],[-76.44,38.161],[-76.468,38.153],[-76.476,38.104],[-76.501,38.137],[-76.529,38.134],[-76.59,38.214],[-76.799,38.237],[-76.827,38.347],[-76.856,38.359],[-76.87,38.332],[-76.842,38.255],[-76.921,38.292],[-76.928,38.321],[-76.974,38.347],[-77.018,38.445],[-77.208,38.36],[-77.251,38.383],[-77.276,38.482],[-77.237,38.552],[-77.111,38.627],[-77.132,38.674],[-77.043,38.719],[-77.039,38.792],[-76.91,38.893],[-77.043,38.994],[-77.118,38.934],[-77.15,38.966],[-77.251,38.986],[-77.247,39.027],[-77.463,39.076],[-77.52,39.121],[-77.516,39.17],[-77.459,39.228],[-77.542,39.265],[-77.563,39.304],[-77.757,39.334],[-77.735,39.388],[-77.753,39.425],[-77.786,39.435],[-77.778,39.463],[-77.847,39.499],[-77.89,39.558],[-77.832,39.571],[-77.832,39.603],[-77.944,39.619],[-78.008,39.602],[-78.098,39.678],[-78.184,39.695],[-78.285,39.621],[-78.353,39.64],[-78.385,39.609],[-78.435,39.618],[-78.396,39.591],[-78.443,39.591],[-78.417,39.549],[-78.468,39.517],[-78.654,39.535],[-78.78,39.602],[-78.733,39.614],[-78.78,39.622],[-78.956,39.44],[-79.096,39.473],[-79.142,39.408],[-79.254,39.357],[-79.29,39.299],[-79.333,39.3],[-79.487,39.206],[-79.46,39.721]]]]}},{"type":"Feature","properties":{"NAME":"Colony of Virginia","SOURCE":"StuffApp hand overlay: modern state outlines clipped at an approximate Proclamation Line"},"geometry":{"type":"MultiPolygon","coordinates":[[[[-75.241,38.027],[-75.381,37.852],[-75.453,37.864],[-75.521,37.797],[-75.603,37.628],[-75.6,37.573],[-75.682,37.464],[-75.657,37.451],[-75.765,37.305],[-75.797,37.296],[-75.794,37.247],[-75.833,37.173],[-75.898,37.118],[-75.955,37.12],[-75.941,37.09],[-75.973,37.086],[-75.977,37.158],[-76.027,37.257],[-76.02,37.317],[-75.926,37.6],[-75.804,37.762],[-75.819,37.792],[-75.743,37.806],[-75.69,37.862],[-75.686,37.886],[-75.758,37.904],[-75.646,37.947],[-75.625,37.994],[-75.241,38.027]]],[[[-79.487,39.206],[-79.333,39.3],[-79.29,39.299],[-79.254,39.357],[-79.142,39.408],[-79.096,39.473],[-78.956,39.44],[-78.78,39.622],[-78.733,39.614],[-78.78,39.602],[-78.654,39.535],[-78.468,39.517],[-78.417,39.549],[-78.443,39.591],[-78.396,39.591],[-78.435,39.618],[-78.385,39.609],[-78.353,39.64],[-78.285,39.621],[-78.184,39.695],[-78.098,39.678],[-78.008,39.602],[-77.944,39.619],[-77.832,39.603],[-77.832,39.571],[-77.89,39.558],[-77.847,39.499],[-77.778,39.463],[-77.786,39.435],[-77.753,39.425],[-77.735,39.388],[-77.757,39.334],[-77.563,39.304],[-77.542,39.265],[-77.459,39.228],[-77.516,39.17],[-77.52,39.121],[-77.463,39.076],[-77.247,39.027],[-77.251,38.986],[-77.15,38.966],[-77.039,38.872],[-77.043,38.719],[-77.132,38.674],[-77.129,38.635],[-77.201,38.617],[-77.247,38.635],[-77.247,38.591],[-77.326,38.449],[-77.319,38.384],[-77.265,38.333],[-77.086,38.368],[-77.043,38.401],[-77.01,38.375],[-77.032,38.311],[-76.964,38.256],[-76.964,38.214],[-76.838,38.164],[-76.748,38.162],[-76.723,38.138],[-76.702,38.156],[-76.616,38.148],[-76.515,38.026],[-76.235,37.889],[-76.253,37.833],[-76.307,37.812],[-76.3,37.695],[-76.339,37.656],[-76.293,37.636],[-76.361,37.61],[-76.472,37.665],[-76.511,37.642],[-76.583,37.768],[-76.723,37.836],[-76.799,37.925],[-76.838,37.934],[-76.852,37.973],[-76.899,37.999],[-76.906,37.973],[-76.806,37.896],[-76.734,37.799],[-76.619,37.744],[-76.544,37.616],[-76.436,37.613],[-76.411,37.582],[-76.3,37.561],[-76.35,37.537],[-76.354,37.505],[-76.307,37.498],[-76.293,37.517],[-76.264,37.482],[-76.246,37.387],[-76.275,37.31],[-76.415,37.403],[-76.447,37.366],[-76.35,37.274],[-76.494,37.25],[-76.472,37.216],[-76.393,37.226],[-76.4,37.16],[-76.35,37.171],[-76.293,37.127],[-76.271,37.085],[-76.303,37.001],[-76.318,37.014],[-76.429,36.97],[-76.465,37.028],[-76.619,37.119],[-76.605,37.16],[-76.651,37.221],[-76.759,37.192],[-76.795,37.232],[-76.874,37.261],[-76.949,37.231],[-76.91,37.202],[-76.802,37.198],[-76.748,37.151],[-76.716,37.149],[-76.687,37.199],[-76.655,37.039],[-76.576,37.023],[-76.486,36.952],[-76.483,36.897],[-76.386,36.9],[-76.354,36.923],[-76.35,36.895],[-76.318,36.885],[-76.328,36.959],[-76.267,36.964],[-76.095,36.909],[-75.995,36.922],[-75.865,36.55],[-80.122,36.543],[-81.676,36.588],[-81.648,36.612],[-81.687,36.613],[-81.0,37.3],[-80.4,37.8],[-79.9,38.6],[-79.6,39.3],[-79.477,39.668],[-79.487,39.206]]],[[[-75.973,37.835],[-75.998,37.812],[-75.998,37.848],[-75.973,37.835]]],[[[-76.034,37.915],[-76.045,37.953],[-75.995,37.953],[-76.034,37.915]]]]}},{"type":"Feature","properties":{"NAME":"Province of North Carolina","SOURCE":"StuffApp hand overlay: modern state outlines clipped at an approximate Proclamation Line"},"geometry":{"type":"MultiPolygon","coordinates":[[[[-81.676,36.588],[-79.512,36.541],[-75.865,36.55],[-75.74,36.154],[-75.532,35.787],[-75.564,35.8],[-75.679,35.994],[-75.725,36.003],[-75.758,36.153],[-75.815,36.286],[-75.844,36.306],[-75.851,36.415],[-75.901,36.482],[-75.991,36.494],[-75.995,36.528],[-76.041,36.511],[-76.02,36.458],[-75.962,36.417],[-75.923,36.426],[-75.923,36.368],[-75.801,36.113],[-75.801,36.073],[-75.869,36.128],[-75.865,36.159],[-75.923,36.245],[-75.966,36.255],[-75.944,36.222],[-75.955,36.198],[-75.905,36.165],[-76.016,36.186],[-76.131,36.287],[-76.185,36.298],[-76.059,36.155],[-76.178,36.123],[-76.253,36.184],[-76.192,36.107],[-76.217,36.095],[-76.458,36.184],[-76.375,36.121],[-76.3,36.101],[-76.411,36.078],[-76.458,36.025],[-76.576,36.007],[-76.605,36.033],[-76.677,36.043],[-76.72,36.147],[-76.72,36.2],[-76.677,36.267],[-76.695,36.278],[-76.745,36.213],[-76.752,36.147],[-76.684,36.001],[-76.702,35.964],[-76.673,35.935],[-76.529,35.944],[-76.397,35.984],[-76.364,35.942],[-76.178,35.994],[-76.063,35.993],[-76.013,35.958],[-76.013,35.921],[-76.063,35.854],[-76.045,35.666],[-76.013,35.67],[-75.977,35.897],[-75.926,35.932],[-75.948,35.96],[-75.898,35.977],[-75.808,35.959],[-75.725,35.823],[-75.74,35.778],[-75.715,35.694],[-75.743,35.672],[-75.729,35.626],[-75.776,35.58],[-75.894,35.573],[-75.952,35.531],[-76.013,35.423],[-76.059,35.41],[-76.07,35.371],[-76.142,35.329],[-76.433,35.362],[-76.45,35.384],[-76.486,35.372],[-76.54,35.41],[-76.587,35.509],[-76.476,35.512],[-76.458,35.55],[-76.601,35.538],[-76.634,35.51],[-76.58,35.387],[-76.709,35.428],[-76.759,35.419],[-77.025,35.515],[-77.028,35.49],[-76.967,35.438],[-76.892,35.434],[-76.666,35.346],[-76.501,35.322],[-76.468,35.261],[-76.569,35.097],[-76.802,34.965],[-76.982,35.061],[-76.978,35.005],[-76.763,34.921],[-76.634,34.989],[-76.49,35.017],[-76.476,35.07],[-76.436,35.058],[-76.397,34.975],[-76.332,34.971],[-76.364,35.035],[-76.293,35.01],[-76.285,34.937],[-76.346,34.873],[-76.411,34.861],[-76.411,34.832],[-76.45,34.815],[-76.526,34.682],[-76.587,34.699],[-76.583,34.768],[-76.619,34.784],[-76.616,34.714],[-76.673,34.708],[-76.522,34.653],[-76.44,34.758],[-76.066,35.077],[-76.038,35.059],[-76.386,34.785],[-76.537,34.588],[-76.551,34.646],[-76.677,34.693],[-77.032,34.661],[-77.208,34.605],[-77.556,34.417],[-77.689,34.32],[-77.829,34.163],[-77.962,33.853],[-78.008,33.859],[-78.019,33.888],[-78.177,33.914],[-78.385,33.902],[-78.539,33.851],[-79.674,34.805],[-80.797,34.82],[-80.783,34.936],[-80.933,35.107],[-81.041,35.044],[-81.059,35.062],[-81.034,35.104],[-81.041,35.149],[-82.29,35.199],[-82.373,35.182],[-82.391,35.215],[-82.434,35.171],[-82.552,35.16],[-82.757,35.068],[-82.782,35.086],[-83.109,35.001],[-83.612,34.992],[-82.9,35.5],[-82.3,36.1],[-81.687,36.613],[-81.648,36.612],[-81.676,36.588]]],[[[-83.618,34.987],[-83.62,34.987],[-83.619,34.988],[-83.618,34.987]]],[[[-75.984,35.12],[-75.535,35.273],[-75.478,35.553],[-75.517,35.769],[-75.46,35.597],[-75.524,35.234],[-75.79,35.172],[-76.013,35.068],[-75.984,35.12]]],[[[-75.614,35.816],[-75.668,35.824],[-75.661,35.862],[-75.725,35.936],[-75.661,35.92],[-75.614,35.816]]]]}},{"type":"Feature","properties":{"NAME":"Province of South Carolina","SOURCE":"StuffApp hand overlay: modern state outlines clipped at an approximate Proclamation Line"},"geometry":{"type":"Polygon","coordinates":[[[-82.782,35.086],[-82.757,35.068],[-82.552,35.16],[-82.434,35.171],[-82.391,35.215],[-82.373,35.182],[-82.29,35.199],[-81.041,35.149],[-81.034,35.104],[-81.059,35.062],[-81.041,35.044],[-80.933,35.107],[-80.783,34.936],[-80.797,34.82],[-79.674,34.805],[-78.539,33.851],[-78.715,33.8],[-78.938,33.64],[-79.135,33.404],[-79.196,33.166],[-79.329,33.09],[-79.361,33.007],[-79.483,33.002],[-79.523,33.035],[-79.58,33.007],[-79.616,32.953],[-79.605,32.926],[-79.577,32.935],[-79.577,32.906],[-79.695,32.85],[-79.727,32.806],[-79.85,32.755],[-79.885,32.788],[-79.925,32.782],[-79.928,32.754],[-79.867,32.735],[-79.885,32.685],[-80.0,32.606],[-80.122,32.591],[-80.183,32.54],[-80.205,32.556],[-80.334,32.478],[-80.363,32.496],[-80.417,32.472],[-80.424,32.498],[-80.47,32.497],[-80.485,32.461],[-80.431,32.39],[-80.456,32.326],[-80.639,32.256],[-80.646,32.291],[-80.715,32.325],[-80.754,32.307],[-80.761,32.28],[-80.668,32.216],[-80.722,32.161],[-80.844,32.11],[-80.905,32.052],[-80.887,32.034],[-80.919,32.038],[-80.998,32.099],[-81.038,32.084],[-81.113,32.113],[-81.131,32.167],[-81.117,32.189],[-81.156,32.246],[-81.12,32.284],[-81.21,32.436],[-81.196,32.466],[-81.278,32.555],[-81.368,32.577],[-81.411,32.618],[-81.393,32.654],[-81.429,32.702],[-81.411,32.74],[-81.425,32.841],[-81.458,32.854],[-81.508,32.951],[-81.49,33.008],[-81.615,33.095],[-81.745,33.142],[-81.773,33.18],[-81.766,33.215],[-81.806,33.211],[-81.852,33.247],[-81.838,33.273],[-81.938,33.343],[-81.938,33.404],[-81.913,33.441],[-81.928,33.462],[-81.982,33.484],[-82.046,33.564],[-82.197,33.63],[-82.247,33.752],[-82.351,33.837],[-82.556,33.944],[-82.595,34.031],[-82.674,34.13],[-82.717,34.15],[-82.742,34.252],[-82.793,34.34],[-82.836,34.366],[-82.875,34.476],[-83.005,34.472],[-83.087,34.516],[-83.17,34.605],[-83.231,34.611],[-83.338,34.682],[-83.349,34.737],[-83.32,34.759],[-83.324,34.79],[-83.231,34.88],[-83.119,34.939],[-83.109,35.001],[-82.782,35.086]]]}},{"type":"Feature","properties":{"NAME":"Province of Georgia","SOURCE":"StuffApp hand overlay: modern state outlines clipped at an approximate Proclamation Line"},"geometry":{"type":"Polygon","coordinates":[[[-83.619,34.988],[-83.109,35.001],[-83.119,34.939],[-83.231,34.88],[-83.324,34.79],[-83.32,34.759],[-83.349,34.737],[-83.338,34.682],[-83.231,34.611],[-83.17,34.605],[-83.087,34.516],[-83.005,34.472],[-82.875,34.476],[-82.836,34.366],[-82.793,34.34],[-82.742,34.252],[-82.717,34.15],[-82.674,34.13],[-82.595,34.031],[-82.556,33.944],[-82.351,33.837],[-82.247,33.752],[-82.197,33.63],[-82.046,33.564],[-81.982,33.484],[-81.928,33.462],[-81.913,33.441],[-81.938,33.404],[-81.938,33.343],[-81.838,33.273],[-81.852,33.247],[-81.806,33.211],[-81.766,33.215],[-81.773,33.18],[-81.745,33.142],[-81.615,33.095],[-81.49,33.008],[-81.508,32.951],[-81.458,32.854],[-81.425,32.841],[-81.411,32.74],[-81.429,32.702],[-81.393,32.654],[-81.411,32.618],[-81.368,32.577],[-81.278,32.555],[-81.196,32.466],[-81.21,32.436],[-81.12,32.284],[-81.156,32.246],[-81.117,32.189],[-81.131,32.167],[-81.113,32.113],[-81.038,32.084],[-80.998,32.099],[-80.919,32.038],[-80.844,32.024],[-80.862,31.969],[-80.912,31.944],[-80.948,31.957],[-80.969,31.916],[-80.933,31.909],[-80.991,31.857],[-81.066,31.877],[-81.077,31.829],[-81.038,31.819],[-81.07,31.769],[-81.131,31.722],[-81.203,31.72],[-81.131,31.696],[-81.134,31.624],[-81.16,31.57],[-81.26,31.548],[-81.26,31.529],[-81.199,31.538],[-81.178,31.517],[-81.26,31.405],[-81.282,31.326],[-81.257,31.315],[-81.292,31.206],[-81.339,31.187],[-81.368,31.137],[-81.4,31.134],[-81.425,31.014],[-81.493,30.978],[-81.447,30.957],[-81.407,30.978],[-81.404,30.908],[-81.461,30.77],[-81.443,30.71],[-81.72,30.745],[-81.949,30.827],[-81.982,30.777],[-82.025,30.783],[-82.01,30.763],[-82.039,30.749],[-82.05,30.655],[-82.007,30.577],[-82.039,30.37],[-82.172,30.359],[-82.211,30.424],[-82.201,30.485],[-82.233,30.557],[-82.215,30.569],[-84.864,30.711],[-84.914,30.753],[-84.943,30.888],[-84.982,30.933],[-85.0,30.989],[-85.0,32.184],[-84.892,32.264],[-85.0,32.322],[-84.964,32.423],[-84.997,32.453],[-85.007,32.524],[-85.093,32.626],[-84.9,33.4],[-84.6,34.1],[-84.2,34.6],[-83.619,34.988]]]}},{"type":"Feature","properties":{"NAME":"East Florida","SOURCE":"StuffApp hand overlay: modern state outlines clipped at an approximate Proclamation Line","LABEL_AT":[29.0,-82.0]},"geometry":{"type":"MultiPolygon","coordinates":[[[[-80.7,24.909],[-80.682,24.881],[-80.732,24.843],[-80.75,24.858],[-80.7,24.909]]],[[[-80.819,24.837],[-80.779,24.84],[-80.797,24.812],[-80.851,24.804],[-80.819,24.837]]],[[[-80.937,24.785],[-80.916,24.759],[-81.077,24.69],[-81.124,24.707],[-80.937,24.785]]],[[[-81.745,24.66],[-81.443,24.813],[-81.307,24.755],[-81.292,24.711],[-81.242,24.674],[-81.4,24.623],[-81.411,24.646],[-81.508,24.642],[-81.684,24.559],[-81.813,24.546],[-81.745,24.66]]],[[[-81.874,24.564],[-81.91,24.527],[-82.017,24.522],[-82.014,24.543],[-81.874,24.564]]],[[[-82.143,24.593],[-82.1,24.584],[-82.118,24.549],[-82.165,24.563],[-82.143,24.593]]],[[[-82.265,26.699],[-82.179,26.502],[-82.089,26.456],[-82.064,26.47],[-82.014,26.452],[-82.096,26.425],[-82.197,26.492],[-82.265,26.656],[-82.265,26.699]]],[[[-82.879,24.644],[-82.865,24.624],[-82.936,24.615],[-82.933,24.633],[-82.879,24.644]]],[[[-84.566,29.835],[-84.566,29.81],[-84.663,29.773],[-84.67,29.795],[-84.566,29.835]]],[[[-85.0,30.989],[-84.943,30.888],[-84.914,30.753],[-84.864,30.711],[-82.215,30.569],[-82.233,30.557],[-82.201,30.485],[-82.211,30.424],[-82.172,30.359],[-82.039,30.37],[-82.007,30.577],[-82.05,30.655],[-82.039,30.749],[-82.01,30.763],[-82.025,30.783],[-81.982,30.777],[-81.949,30.827],[-81.72,30.745],[-81.54,30.713],[-81.49,30.726],[-81.429,30.698],[-81.447,30.503],[-81.411,30.482],[-81.393,30.303],[-81.264,29.814],[-81.163,29.555],[-80.944,29.111],[-80.575,28.585],[-80.524,28.46],[-80.589,28.411],[-80.603,28.364],[-80.567,28.095],[-80.384,27.74],[-80.094,27.018],[-80.033,26.797],[-80.036,26.595],[-80.129,25.773],[-80.155,25.665],[-80.183,25.746],[-80.241,25.724],[-80.298,25.622],[-80.338,25.466],[-80.305,25.384],[-80.363,25.328],[-80.366,25.285],[-80.291,25.319],[-80.176,25.521],[-80.176,25.486],[-80.359,25.153],[-80.571,24.954],[-80.668,24.907],[-80.496,25.047],[-80.442,25.189],[-80.463,25.209],[-80.496,25.2],[-80.521,25.222],[-80.747,25.147],[-80.811,25.186],[-80.876,25.175],[-80.901,25.139],[-80.998,25.124],[-81.081,25.119],[-81.142,25.163],[-81.17,25.222],[-81.142,25.341],[-81.12,25.339],[-81.127,25.381],[-81.21,25.505],[-81.231,25.587],[-81.271,25.615],[-81.289,25.688],[-81.35,25.69],[-81.382,25.777],[-81.623,25.897],[-81.691,25.852],[-81.802,26.088],[-81.82,26.236],[-81.87,26.379],[-81.971,26.476],[-82.01,26.484],[-82.014,26.529],[-82.057,26.548],[-82.057,26.493],[-82.107,26.484],[-82.139,26.638],[-82.183,26.681],[-82.172,26.702],[-82.125,26.699],[-82.093,26.666],[-82.053,26.803],[-82.061,26.876],[-82.089,26.888],[-82.089,26.923],[-82.061,26.931],[-82.075,26.958],[-82.175,26.917],[-82.147,26.79],[-82.251,26.763],[-82.269,26.72],[-82.29,26.827],[-82.445,27.06],[-82.545,27.261],[-82.692,27.437],[-82.742,27.54],[-82.707,27.523],[-82.703,27.498],[-82.649,27.523],[-82.394,27.837],[-82.412,27.901],[-82.491,27.919],[-82.473,27.822],[-82.552,27.848],[-82.531,27.877],[-82.552,27.967],[-82.689,28.028],[-82.685,27.972],[-82.725,27.948],[-82.685,27.916],[-82.628,27.911],[-82.588,27.816],[-82.624,27.78],[-82.638,27.704],[-82.714,27.699],[-82.725,27.671],[-82.699,27.638],[-82.732,27.613],[-82.739,27.718],[-82.85,27.864],[-82.829,28.02],[-82.861,28.217],[-82.829,28.218],[-82.814,28.062],[-82.782,28.056],[-82.796,28.187],[-82.764,28.219],[-82.674,28.442],[-82.653,28.591],[-82.667,28.696],[-82.714,28.721],[-82.699,28.757],[-82.732,28.851],[-82.689,28.906],[-82.764,29.0],[-82.753,29.027],[-82.782,29.074],[-82.818,29.077],[-82.804,29.147],[-82.997,29.178],[-83.055,29.131],[-83.087,29.217],[-83.076,29.255],[-83.17,29.29],[-83.177,29.345],[-83.241,29.433],[-83.295,29.438],[-83.313,29.476],[-83.399,29.517],[-83.414,29.67],[-83.539,29.723],[-83.636,29.886],[-83.686,29.924],[-84.024,30.103],[-84.157,30.073],[-84.268,30.098],[-84.272,30.068],[-84.365,30.009],[-84.333,29.924],[-84.343,29.899],[-84.433,29.906],[-84.451,29.929],[-84.537,29.91],[-84.882,29.734],[-84.903,29.735],[-84.878,29.773],[-84.914,29.784],[-85.0,29.715],[-85.0,30.989]]],[[[-85.0,29.627],[-84.799,29.702],[-84.702,29.774],[-84.691,29.763],[-84.778,29.692],[-85.0,29.601],[-85.0,29.627]]]]}},{"type":"Feature","properties":{"NAME":"West Florida","SOURCE":"StuffApp hand overlay: modern state outlines clipped at an approximate Proclamation Line","LABEL_AT":[30.9,-88.2]},"geometry":{"type":"MultiPolygon","coordinates":[[[[-88.88,30.053],[-88.834,30.0],[-88.855,30.0],[-88.88,30.053]]],[[[-89.221,30.071],[-89.175,30.043],[-89.228,30.0],[-89.239,30.04],[-89.336,30.04],[-89.343,30.059],[-89.189,30.162],[-89.221,30.071]]],[[[-88.403,30.206],[-88.496,30.197],[-88.51,30.217],[-88.403,30.206]]],[[[-88.988,30.216],[-88.88,30.249],[-88.895,30.224],[-88.97,30.201],[-88.988,30.216]]],[[[-89.074,30.212],[-89.16,30.239],[-89.056,30.249],[-89.074,30.212]]],[[[-88.715,30.257],[-88.607,30.232],[-88.586,30.219],[-88.773,30.246],[-88.715,30.257]]],[[[-85.0,32.47],[-85.0,32.184],[-85.058,32.136],[-85.054,32.014],[-85.14,31.839],[-85.126,31.695],[-85.058,31.62],[-85.047,31.517],[-85.093,31.362],[-85.09,31.295],[-85.115,31.277],[-85.108,31.186],[-85.036,31.108],[-85.0,30.989],[-85.0,30.0],[-85.546,30.0],[-85.6,30.057],[-85.923,30.238],[-86.091,30.303],[-86.411,30.381],[-86.752,30.392],[-87.294,30.324],[-87.8,30.229],[-88.001,30.226],[-87.936,30.261],[-87.893,30.239],[-87.768,30.262],[-87.757,30.291],[-87.907,30.41],[-87.933,30.487],[-87.9,30.551],[-87.911,30.616],[-87.936,30.657],[-88.008,30.685],[-88.062,30.645],[-88.055,30.613],[-88.105,30.501],[-88.108,30.377],[-88.137,30.32],[-88.191,30.317],[-88.187,30.348],[-88.259,30.382],[-88.313,30.369],[-88.331,30.388],[-88.396,30.369],[-88.41,30.342],[-88.435,30.355],[-88.471,30.32],[-88.665,30.363],[-88.729,30.343],[-88.812,30.385],[-88.819,30.361],[-88.895,30.393],[-89.085,30.368],[-89.293,30.303],[-89.279,30.35],[-89.314,30.375],[-89.365,30.352],[-89.332,30.338],[-89.329,30.303],[-89.419,30.254],[-89.447,30.186],[-89.616,30.156],[-89.677,30.108],[-89.684,30.076],[-89.727,30.063],[-89.716,30.028],[-89.817,30.043],[-89.855,30.0],[-91.7,30.0],[-91.7,32.47],[-85.0,32.47]]],[[[-89.494,30.041],[-89.483,30.079],[-89.372,30.055],[-89.433,30.0],[-89.571,30.0],[-89.494,30.041]]],[[[-88.108,30.225],[-88.331,30.235],[-88.13,30.262],[-88.126,30.283],[-88.076,30.249],[-88.108,30.225]]]]}},{"type":"Feature","properties":{"NAME":"Indian Reserve (1763)","SOURCE":"StuffApp hand overlay: modern state outlines clipped at an approximate Proclamation Line","LABEL_AT":[38.6,-84.6]},"geometry":{"type":"MultiPolygon","coordinates":[[[[-91.052,33.285],[-91.088,33.274],[-91.098,33.238],[-91.141,33.296],[-91.141,33.351],[-91.059,33.429],[-91.077,33.456],[-91.113,33.393],[-91.174,33.381],[-91.21,33.402],[-91.138,33.427],[-91.123,33.473],[-91.174,33.496],[-91.17,33.453],[-91.235,33.439],[-91.185,33.508],[-91.231,33.562],[-91.131,33.597],[-91.138,33.625],[-91.228,33.669],[-91.22,33.693],[-91.159,33.707],[-91.077,33.658],[-91.034,33.673],[-91.062,33.716],[-91.109,33.704],[-91.145,33.727],[-91.141,33.777],[-91.027,33.764],[-90.991,33.793],[-91.048,33.815],[-91.073,33.862],[-91.009,33.929],[-91.088,33.959],[-91.077,33.983],[-91.019,34.003],[-91.001,33.966],[-90.962,33.98],[-90.987,34.019],[-90.901,34.024],[-90.872,34.076],[-90.883,34.097],[-90.922,34.094],[-90.955,34.138],[-90.912,34.166],[-90.854,34.137],[-90.808,34.161],[-90.815,34.183],[-90.887,34.182],[-90.937,34.219],[-90.905,34.244],[-90.847,34.207],[-90.833,34.268],[-90.739,34.306],[-90.768,34.345],[-90.75,34.368],[-90.682,34.369],[-90.693,34.323],[-90.657,34.322],[-90.657,34.376],[-90.567,34.425],[-90.589,34.496],[-90.542,34.54],[-90.589,34.616],[-90.589,34.671],[-90.553,34.689],[-90.556,34.647],[-90.517,34.631],[-90.467,34.674],[-90.474,34.701],[-90.546,34.702],[-90.567,34.737],[-90.513,34.802],[-90.503,34.724],[-90.452,34.74],[-90.477,34.886],[-90.438,34.885],[-90.424,34.834],[-90.248,34.91],[-90.248,34.948],[-90.309,34.995],[-90.298,35.038],[-90.208,35.026],[-90.176,35.112],[-90.065,35.138],[-90.118,35.188],[-90.075,35.225],[-90.151,35.256],[-90.165,35.296],[-90.108,35.305],[-90.075,35.384],[-90.129,35.414],[-90.136,35.377],[-90.18,35.382],[-90.169,35.422],[-90.086,35.479],[-90.057,35.403],[-90.018,35.468],[-90.05,35.504],[-90.032,35.554],[-90.0,35.562],[-89.921,35.513],[-89.91,35.548],[-89.943,35.556],[-89.946,35.602],[-89.853,35.638],[-89.864,35.671],[-89.907,35.651],[-89.939,35.666],[-89.961,35.724],[-89.907,35.759],[-89.874,35.741],[-89.813,35.76],[-89.781,35.805],[-89.702,35.834],[-89.774,35.865],[-89.742,35.907],[-89.655,35.887],[-89.655,35.926],[-89.734,36.001],[-89.691,36.02],[-89.681,36.085],[-89.602,36.119],[-89.605,36.171],[-89.706,36.235],[-89.695,36.253],[-89.533,36.252],[-89.537,36.275],[-89.612,36.309],[-89.612,36.341],[-89.526,36.342],[-89.508,36.373],[-89.544,36.424],[-89.519,36.479],[-89.573,36.548],[-89.559,36.574],[-89.483,36.572],[-89.465,36.53],[-89.494,36.47],[-89.447,36.464],[-89.372,36.621],[-89.325,36.632],[-89.261,36.565],[-89.214,36.58],[-89.16,36.666],[-89.2,36.716],[-89.185,36.754],[-89.128,36.751],[-89.117,36.775],[-89.178,36.807],[-89.175,36.84],[-89.139,36.848],[-89.117,36.887],[-89.099,36.964],[-89.131,36.982],[-89.171,36.97],[-89.261,37.064],[-89.311,37.054],[-89.257,37.015],[-89.293,36.992],[-89.379,37.04],[-89.376,37.086],[-89.462,37.2],[-89.458,37.24],[-89.519,37.286],[-89.49,37.334],[-89.437,37.344],[-89.422,37.397],[-89.515,37.536],[-89.523,37.579],[-89.476,37.586],[-89.515,37.644],[-89.515,37.693],[-89.584,37.714],[-89.616,37.75],[-89.666,37.752],[-89.659,37.787],[-89.846,37.906],[-89.882,37.879],[-89.953,37.884],[-89.975,37.927],[-89.932,37.947],[-89.943,37.97],[-90.0,37.964],[-90.09,38.016],[-90.355,38.213],[-90.37,38.341],[-90.284,38.444],[-90.262,38.529],[-90.183,38.611],[-90.212,38.722],[-90.122,38.798],[-90.115,38.849],[-90.251,38.92],[-90.406,38.963],[-90.474,38.959],[-90.506,38.902],[-90.585,38.869],[-90.664,38.928],[-90.714,39.057],[-90.682,39.088],[-90.721,39.232],[-90.793,39.31],[-91.005,39.427],[-91.102,39.539],[-91.149,39.546],[-91.185,39.605],[-91.371,39.732],[-91.36,39.785],[-91.447,39.871],[-91.418,39.927],[-91.493,40.036],[-91.515,40.178],[-91.447,40.363],[-91.375,40.392],[-91.368,40.512],[-91.407,40.542],[-91.36,40.602],[-91.185,40.638],[-91.12,40.673],[-91.091,40.825],[-90.966,40.921],[-90.948,41.096],[-90.994,41.161],[-91.041,41.166],[-91.113,41.239],[-91.045,41.416],[-90.65,41.465],[-90.592,41.513],[-90.463,41.523],[-90.341,41.59],[-90.312,41.742],[-90.18,41.809],[-90.14,42.009],[-90.165,42.041],[-90.162,42.117],[-90.377,42.215],[-90.431,42.279],[-90.42,42.33],[-90.564,42.438],[-90.643,42.468],[-90.643,42.541],[-90.707,42.634],[-90.937,42.683],[-91.055,42.738],[-91.102,42.883],[-91.145,42.905],[-91.177,43.132],[-91.059,43.248],[-91.106,43.314],[-91.202,43.349],[-91.199,43.413],[-91.235,43.455],[-91.217,43.5],[-91.246,43.546],[-91.231,43.583],[-91.267,43.615],[-91.274,43.676],[-91.246,43.773],[-91.386,43.955],[-91.439,44.002],[-91.579,44.027],[-91.719,44.129],[-91.877,44.203],[-91.895,44.275],[-91.924,44.288],[-91.924,44.333],[-91.974,44.368],[-92.233,44.445],[-92.283,44.478],[-92.319,44.545],[-92.541,44.567],[-92.807,44.768],[-92.764,44.837],[-92.775,44.901],[-92.749,44.937],[-92.771,44.973],[-92.764,45.028],[-92.803,45.058],[-92.746,45.107],[-92.767,45.186],[-92.76,45.291],[-92.649,45.399],[-92.645,45.442],[-92.728,45.515],[-92.724,45.541],[-92.775,45.569],[-92.886,45.579],[-92.864,45.723],[-92.785,45.765],[-92.714,45.892],[-92.552,45.952],[-92.523,45.985],[-92.473,45.973],[-92.437,46.021],[-92.351,46.015],[-92.329,46.066],[-92.294,46.075],[-92.294,46.663],[-92.215,46.649],[-92.175,46.686],[-92.207,46.703],[-92.089,46.749],[-91.942,46.68],[-91.82,46.69],[-91.511,46.758],[-91.228,46.863],[-91.167,46.844],[-91.141,46.873],[-91.052,46.881],[-90.973,46.942],[-90.922,46.931],[-90.872,46.961],[-90.836,46.958],[-90.75,46.888],[-90.887,46.756],[-90.854,46.693],[-90.912,46.663],[-90.951,46.597],[-90.905,46.583],[-90.754,46.646],[-90.736,46.692],[-90.538,46.581],[-90.416,46.566],[-90.029,46.674],[-89.792,46.819],[-89.437,46.839],[-89.25,46.904],[-89.142,46.984],[-88.959,47.009],[-88.905,47.086],[-88.658,47.226],[-88.575,47.246],[-88.388,47.385],[-88.18,47.458],[-87.979,47.479],[-87.8,47.473],[-87.717,47.44],[-87.714,47.401],[-87.958,47.387],[-87.94,47.347],[-88.055,47.298],[-88.162,47.216],[-88.231,47.199],[-88.248,47.136],[-88.274,47.143],[-88.299,47.099],[-88.349,47.076],[-88.367,47.019],[-88.442,46.972],[-88.485,46.832],[-88.464,46.787],[-88.496,46.757],[-88.457,46.759],[-88.374,46.872],[-88.349,46.861],[-88.144,46.966],[-88.284,46.832],[-88.177,46.905],[-88.083,46.92],[-87.818,46.891],[-87.728,46.827],[-87.674,46.837],[-87.595,46.783],[-87.584,46.73],[-87.502,46.648],[-87.452,46.606],[-87.383,46.593],[-87.391,46.525],[-87.351,46.501],[-87.107,46.497],[-87.017,46.533],[-86.978,46.527],[-86.885,46.442],[-86.816,46.438],[-86.788,46.478],[-86.73,46.472],[-86.698,46.439],[-86.684,46.498],[-86.709,46.544],[-86.651,46.561],[-86.626,46.533],[-86.648,46.485],[-86.587,46.463],[-86.493,46.525],[-86.138,46.673],[-86.098,46.655],[-85.88,46.691],[-85.481,46.68],[-85.172,46.764],[-84.95,46.77],[-85.029,46.698],[-85.029,46.543],[-85.058,46.527],[-85.025,46.483],[-84.936,46.49],[-84.799,46.446],[-84.63,46.485],[-84.591,46.445],[-84.595,46.415],[-84.48,46.433],[-84.444,46.489],[-84.376,46.509],[-84.293,46.493],[-84.225,46.534],[-84.128,46.53],[-84.11,46.504],[-84.146,46.418],[-84.117,46.234],[-84.221,46.232],[-84.25,46.176],[-84.124,46.18],[-84.096,46.148],[-84.027,46.131],[-84.074,46.097],[-83.988,46.033],[-83.873,45.993],[-83.844,46.026],[-83.794,45.996],[-83.765,46.018],[-83.823,46.104],[-83.582,46.089],[-83.532,46.011],[-83.475,45.985],[-83.511,45.93],[-83.561,45.912],[-83.658,45.946],[-83.769,45.932],[-83.88,45.968],[-84.017,45.959],[-84.114,45.979],[-84.329,45.956],[-84.376,45.932],[-84.562,46.033],[-84.609,46.027],[-84.656,46.052],[-84.691,46.017],[-84.684,45.973],[-84.738,45.946],[-84.702,45.853],[-84.745,45.836],[-84.831,45.872],[-85.015,46.011],[-85.316,46.087],[-85.513,46.094],[-85.696,45.96],[-85.811,45.98],[-85.894,45.967],[-85.923,45.948],[-85.915,45.919],[-86.073,45.966],[-86.278,45.942],[-86.325,45.906],[-86.364,45.79],[-86.414,45.794],[-86.439,45.76],[-86.518,45.747],[-86.54,45.708],[-86.587,45.705],[-86.587,45.667],[-86.63,45.659],[-86.615,45.607],[-86.719,45.668],[-86.676,45.692],[-86.63,45.782],[-86.583,45.778],[-86.529,45.853],[-86.54,45.89],[-86.583,45.899],[-86.648,45.834],[-86.784,45.855],[-86.773,45.811],[-86.838,45.723],[-86.964,45.673],[-86.985,45.706],[-86.989,45.811],[-87.017,45.838],[-87.053,45.822],[-87.06,45.709],[-87.172,45.662],[-87.265,45.551],[-87.326,45.425],[-87.613,45.124],[-87.592,45.095],[-87.628,45.046],[-87.631,44.977],[-87.764,44.966],[-87.839,44.931],[-87.829,44.891],[-87.983,44.72],[-87.997,44.609],[-88.044,44.566],[-87.972,44.53],[-87.929,44.536],[-87.904,44.582],[-87.775,44.639],[-87.61,44.839],[-87.477,44.863],[-87.437,44.893],[-87.383,44.865],[-87.405,44.905],[-87.362,44.988],[-87.265,45.082],[-87.24,45.168],[-87.121,45.191],[-87.118,45.241],[-87.057,45.293],[-86.978,45.29],[-86.985,45.216],[-87.042,45.211],[-87.05,45.089],[-87.121,45.058],[-87.19,44.968],[-87.172,44.931],[-87.218,44.898],[-87.204,44.875],[-87.269,44.847],[-87.315,44.794],[-87.344,44.719],[-87.47,44.552],[-87.545,44.321],[-87.513,44.241],[-87.52,44.18],[-87.645,44.105],[-87.735,43.881],[-87.699,43.767],[-87.706,43.68],[-87.782,43.578],[-87.807,43.461],[-87.879,43.37],[-87.911,43.236],[-87.872,43.065],[-87.897,43.016],[-87.846,42.962],[-87.825,42.835],[-87.768,42.785],[-87.821,42.616],[-87.8,42.492],[-87.836,42.302],[-87.8,42.208],[-87.681,42.076],[-87.61,41.846],[-87.531,41.749],[-87.523,41.708],[-87.47,41.673],[-87.401,41.677],[-87.423,41.643],[-87.222,41.624],[-87.121,41.645],[-86.824,41.761],[-86.619,41.894],[-86.486,42.118],[-86.364,42.243],[-86.296,42.358],[-86.206,42.719],[-86.231,43.016],[-86.54,43.618],[-86.54,43.659],[-86.436,43.79],[-86.465,43.971],[-86.515,44.048],[-86.429,44.12],[-86.267,44.345],[-86.221,44.567],[-86.256,44.692],[-86.088,44.741],[-86.073,44.885],[-86.037,44.916],[-85.991,44.9],[-85.933,44.969],[-85.869,44.939],[-85.808,44.95],[-85.747,45.052],[-85.711,45.065],[-85.618,45.186],[-85.585,45.18],[-85.542,45.211],[-85.531,45.177],[-85.6,45.15],[-85.61,45.113],[-85.567,45.044],[-85.65,44.974],[-85.603,44.991],[-85.603,44.927],[-85.653,44.849],[-85.628,44.767],[-85.6,44.766],[-85.531,44.89],[-85.521,44.974],[-85.474,44.991],[-85.503,44.856],[-85.556,44.818],[-85.578,44.76],[-85.528,44.748],[-85.395,44.931],[-85.37,45.271],[-85.208,45.357],[-84.918,45.393],[-84.921,45.422],[-85.04,45.436],[-85.09,45.477],[-85.119,45.575],[-85.061,45.639],[-84.943,45.71],[-84.95,45.737],[-85.015,45.76],[-84.799,45.747],[-84.774,45.79],[-84.462,45.652],[-84.329,45.664],[-84.214,45.635],[-84.128,45.562],[-84.117,45.513],[-84.056,45.49],[-83.938,45.493],[-83.805,45.419],[-83.722,45.413],[-83.6,45.352],[-83.496,45.357],[-83.381,45.269],[-83.414,45.246],[-83.32,45.137],[-83.27,45.023],[-83.399,45.07],[-83.453,45.035],[-83.439,44.941],[-83.32,44.881],[-83.299,44.746],[-83.274,44.714],[-83.317,44.595],[-83.331,44.34],[-83.424,44.272],[-83.511,44.274],[-83.539,44.248],[-83.582,44.057],[-83.679,44.036],[-83.679,43.994],[-83.83,43.989],[-83.877,43.959],[-83.956,43.751],[-83.909,43.673],[-83.852,43.645],[-83.819,43.674],[-83.801,43.641],[-83.683,43.59],[-83.647,43.604],[-83.546,43.707],[-83.471,43.729],[-83.496,43.772],[-83.432,43.885],[-83.417,43.842],[-83.331,43.894],[-83.407,43.92],[-83.32,43.918],[-83.263,43.973],[-83.058,44.006],[-83.026,44.045],[-82.915,44.071],[-82.739,43.99],[-82.642,43.852],[-82.599,43.59],[-82.538,43.437],[-82.524,43.225],[-82.416,42.967],[-82.455,42.927],[-82.48,42.803],[-82.466,42.762],[-82.524,42.608],[-82.588,42.551],[-82.642,42.554],[-82.685,42.518],[-82.681,42.575],[-82.714,42.598],[-82.624,42.665],[-82.674,42.687],[-82.796,42.654],[-82.821,42.626],[-82.782,42.565],[-82.836,42.568],[-82.875,42.523],[-82.897,42.385],[-82.958,42.34],[-83.066,42.318],[-83.13,42.235],[-83.134,42.088],[-83.188,42.066],[-83.191,42.006],[-83.27,41.939],[-83.317,41.936],[-83.342,41.88],[-83.381,41.87],[-83.442,41.809],[-83.424,41.741],[-83.453,41.733],[-83.45,41.711],[-83.374,41.687],[-83.328,41.701],[-83.195,41.631],[-83.105,41.614],[-82.933,41.514],[-82.868,41.534],[-82.861,41.577],[-82.836,41.588],[-82.786,41.541],[-82.717,41.542],[-82.721,41.511],[-82.617,41.428],[-82.48,41.382],[-82.01,41.516],[-81.877,41.483],[-81.737,41.488],[-81.285,41.761],[-80.348,42.03],[-80.187,42.094],[-80.119,42.166],[-80.072,42.169],[-80.061,42.145],[-79.645,42.315],[-79.351,42.489],[-79.15,42.553],[-79.063,42.645],[-79.049,42.689],[-78.852,42.784],[-78.866,42.852],[-78.913,42.887],[-78.906,42.924],[-78.931,42.955],[-79.013,42.986],[-79.01,43.065],[-79.074,43.077],[-79.042,43.144],[-79.071,43.262],[-78.633,43.358],[-78.371,43.376],[-78.105,43.376],[-77.796,43.339],[-77.714,43.323],[-77.534,43.235],[-77.391,43.277],[-77.111,43.288],[-76.953,43.271],[-76.698,43.345],[-76.63,43.413],[-76.418,43.522],[-76.235,43.529],[-76.203,43.575],[-76.196,43.65],[-76.228,43.804],[-76.3,43.839],[-76.26,43.882],[-76.21,43.891],[-76.203,43.863],[-76.127,43.898],[-76.138,43.935],[-76.206,43.975],[-76.285,43.962],[-76.267,43.987],[-76.321,44.031],[-76.375,44.032],[-76.371,44.101],[-76.314,44.199],[-76.246,44.204],[-76.163,44.24],[-76.163,44.281],[-75.912,44.368],[-75.822,44.432],[-75.765,44.516],[-75.309,44.837],[-74.972,44.984],[-74.828,45.016],[-74.731,44.991],[-71.501,45.014],[-71.49,45.072],[-71.425,45.127],[-71.397,45.204],[-71.443,45.235],[-71.379,45.244],[-71.285,45.302],[-71.232,45.25],[-71.131,45.246],[-71.084,45.306],[-71.009,45.319],[-71.009,45.347],[-70.919,45.312],[-70.898,45.242],[-70.858,45.229],[-70.812,45.302],[-70.805,45.376],[-70.826,45.4],[-70.783,45.431],[-70.711,45.391],[-70.636,45.383],[-70.632,45.417],[-70.718,45.488],[-70.722,45.515],[-70.643,45.607],[-70.385,45.735],[-70.417,45.796],[-70.259,45.891],[-70.241,45.939],[-70.266,45.963],[-70.316,45.963],[-70.316,46.02],[-70.28,46.052],[-70.309,46.064],[-70.237,46.148],[-70.291,46.186],[-70.205,46.3],[-70.209,46.332],[-70.058,46.417],[-69.997,46.695],[-69.225,47.46],[-69.042,47.428],[-69.049,47.257],[-68.902,47.179],[-68.719,47.241],[-68.619,47.243],[-68.579,47.288],[-68.382,47.287],[-68.382,47.34],[-68.235,47.355],[-68.152,47.324],[-68.138,47.296],[-68.019,47.238],[-67.89,47.112],[-67.789,47.068],[-67.782,45.943],[-67.75,45.918],[-67.804,45.884],[-67.754,45.824],[-67.807,45.795],[-67.804,45.678],[-67.721,45.662],[-67.711,45.68],[-67.675,45.631],[-67.606,45.607],[-67.499,45.587],[-67.449,45.603],[-67.416,45.502],[-67.502,45.49],[-67.42,45.377],[-67.488,45.279],[-67.405,45.16],[-67.341,45.125],[-67.294,45.15],[-67.291,45.189],[-67.158,45.161],[-67.111,45.113],[-67.09,45.069],[-67.118,45.057],[-67.067,45.0],[-73.35,45.0],[-73.6,44.2],[-74.6,43.2],[-75.3,42.4],[-77.8,41.3],[-78.8,40.6],[-79.4,39.9],[-79.6,39.3],[-79.9,38.6],[-80.4,37.8],[-81.0,37.3],[-81.7,36.6],[-82.3,36.1],[-82.9,35.5],[-84.2,34.6],[-84.6,34.1],[-84.9,33.4],[-85.093,32.626],[-85.007,32.524],[-84.997,32.453],[-84.964,32.423],[-85.0,32.322],[-85.0,32.47],[-91.101,32.47],[-91.102,32.526],[-91.023,32.485],[-90.987,32.491],[-91.08,32.557],[-91.001,32.615],[-91.027,32.647],[-91.048,32.607],[-91.141,32.597],[-91.152,32.642],[-91.055,32.726],[-91.167,32.752],[-91.163,32.813],[-91.07,32.889],[-91.062,32.923],[-91.095,32.984],[-91.134,32.981],[-91.131,32.923],[-91.181,32.901],[-91.213,32.92],[-91.12,33.055],[-91.202,33.108],[-91.185,33.142],[-91.095,33.136],[-91.091,33.221],[-91.045,33.265],[-91.052,33.285]]],[[[-85.0,32.322],[-85.0,32.322],[-85.0,32.322],[-85.0,32.322]]],[[[-85.0,32.322],[-84.892,32.264],[-85.0,32.184],[-85.0,32.322]]],[[[-85.0,30.989],[-85.036,31.108],[-85.108,31.186],[-85.115,31.277],[-85.09,31.295],[-85.093,31.362],[-85.047,31.517],[-85.058,31.62],[-85.126,31.695],[-85.14,31.839],[-85.054,32.014],[-85.058,32.136],[-85.0,32.184],[-85.0,30.989]]],[[[-85.0,29.715],[-85.122,29.716],[-85.068,29.641],[-85.011,29.622],[-84.903,29.668],[-85.047,29.587],[-85.223,29.678],[-85.291,29.684],[-85.352,29.66],[-85.399,29.741],[-85.417,29.843],[-85.388,29.879],[-85.388,29.789],[-85.341,29.692],[-85.305,29.725],[-85.302,29.808],[-85.427,29.95],[-85.546,30.0],[-85.0,30.0],[-85.0,29.715]]],[[[-87.326,45.157],[-87.376,45.177],[-87.376,45.199],[-87.333,45.211],[-87.326,45.157]]],[[[-86.935,45.421],[-86.824,45.406],[-86.906,45.296],[-86.956,45.352],[-86.935,45.421]]],[[[-86.691,45.617],[-86.619,45.562],[-86.648,45.543],[-86.712,45.611],[-86.691,45.617]]],[[[-90.793,46.785],[-90.617,46.875],[-90.567,46.847],[-90.675,46.819],[-90.657,46.789],[-90.79,46.753],[-90.793,46.785]]],[[[-90.678,46.898],[-90.675,46.881],[-90.761,46.839],[-90.75,46.862],[-90.678,46.898]]],[[[-90.449,46.905],[-90.499,46.864],[-90.524,46.876],[-90.449,46.905]]],[[[-90.51,46.957],[-90.549,46.916],[-90.635,46.906],[-90.653,46.925],[-90.51,46.957]]],[[[-90.736,46.915],[-90.765,46.947],[-90.739,46.964],[-90.689,46.917],[-90.736,46.915]]],[[[-90.93,47.001],[-90.933,46.963],[-90.984,46.986],[-90.93,47.001]]],[[[-90.775,47.024],[-90.65,47.055],[-90.61,47.008],[-90.56,47.037],[-90.553,46.999],[-90.61,46.991],[-90.671,46.949],[-90.775,47.024]]],[[[-90.395,47.077],[-90.413,47.013],[-90.467,47.003],[-90.438,47.074],[-90.395,47.077]]],[[[-88.579,48.084],[-88.579,48.058],[-88.668,48.011],[-89.002,47.909],[-88.995,47.892],[-88.912,47.892],[-89.124,47.829],[-89.189,47.832],[-89.253,47.876],[-89.178,47.935],[-88.812,48.055],[-88.658,48.139],[-88.424,48.191],[-88.428,48.167],[-88.579,48.084]]],[[[-82.678,41.618],[-82.685,41.587],[-82.735,41.603],[-82.678,41.618]]],[[[-82.843,41.628],[-82.821,41.724],[-82.782,41.694],[-82.843,41.628]]],[[[-86.116,45.048],[-86.095,45.008],[-86.156,45.01],[-86.116,45.048]]],[[[-86.066,45.14],[-86.045,45.16],[-85.976,45.138],[-85.998,45.056],[-86.059,45.101],[-86.066,45.14]]],[[[-85.883,45.443],[-85.836,45.429],[-85.833,45.378],[-85.883,45.443]]],[[[-85.628,45.598],[-85.567,45.76],[-85.503,45.754],[-85.492,45.61],[-85.56,45.572],[-85.628,45.598]]],[[[-85.671,45.697],[-85.696,45.698],[-85.7,45.736],[-85.653,45.743],[-85.671,45.697]]],[[[-85.395,45.778],[-85.377,45.813],[-85.352,45.796],[-85.395,45.778]]],[[[-85.463,45.765],[-85.531,45.798],[-85.524,45.83],[-85.449,45.796],[-85.463,45.765]]],[[[-84.358,45.771],[-84.419,45.722],[-84.501,45.737],[-84.652,45.863],[-84.623,45.877],[-84.591,45.826],[-84.358,45.771]]],[[[-76.318,43.918],[-76.336,43.879],[-76.375,43.875],[-76.318,43.918]]],[[[-76.411,43.925],[-76.379,43.921],[-76.454,43.891],[-76.411,43.925]]]]}},{"type":"Feature","properties":{"NAME":"Province of Quebec (1763)","SOURCE":"StuffApp hand overlay: modern state outlines clipped at an approximate Proclamation Line","LABEL_AT":[47.2,-71.8]},"geometry":{"type":"Polygon","coordinates":[[[-74.8,45.0],[-73.35,45.0],[-71.5,45.3],[-70.0,46.2],[-68.5,47.6],[-66.5,48.6],[-64.3,49.3],[-65.0,50.3],[-68.0,50.2],[-70.5,49.4],[-74.5,47.6],[-76.5,46.5],[-77.0,45.5],[-74.8,45.0]]]}},{"type":"Feature","properties":{"NAME":"Proclamation Line of 1763","LINE":true},"geometry":{"type":"LineString","coordinates":[[-73.35,45.0],[-73.6,44.2],[-74.6,43.2],[-75.3,42.4],[-76.4,41.9],[-77.8,41.3],[-78.8,40.6],[-79.4,39.9],[-79.6,39.3],[-79.9,38.6],[-80.4,37.8],[-81.0,37.3],[-81.7,36.6],[-82.3,36.1],[-82.9,35.5],[-83.6,35.0],[-84.2,34.6],[-84.6,34.1],[-84.9,33.4],[-85.1,32.6],[-85.15,31.0],[-85.05,30.0]]}}]}