{"type":"FeatureCollection","features":[{"type":"Feature","properties":{"NAME":"German East Africa (Deutsch-Ostafrika)","SOURCE":"StuffApp hand overlay: modern outlines for the German colonies of 1885\u20131918","LABEL_AT":[-6.0,35.0]},"geometry":{"type":"MultiPolygon","coordinates":[[[[39.635,-7.978],[39.602,-7.936],[39.908,-7.65],[39.825,-7.9],[39.635,-7.978]]],[[[32.607,-9.271],[32.435,-9.157],[31.941,-9.054],[31.92,-8.942],[31.675,-8.909],[31.556,-8.806],[31.535,-8.714],[31.351,-8.606],[31.077,-8.612],[30.969,-8.551],[30.829,-8.386],[30.213,-7.037],[29.709,-6.617],[29.54,-6.313],[29.479,-6.025],[29.608,-5.723],[29.324,-4.898],[29.403,-4.449],[29.331,-4.095],[29.212,-3.834],[29.223,-3.053],[29.018,-2.8],[29.014,-2.72],[28.921,-2.681],[28.856,-2.447],[29.133,-2.195],[29.144,-1.815],[29.353,-1.518],[29.576,-1.388],[29.824,-1.336],[29.9,-1.466],[29.99,-1.447],[30.361,-1.074],[30.599,-1.07],[30.811,-0.994],[33.979,-1.003],[37.644,-3.046],[37.683,-3.306],[37.608,-3.497],[39.221,-4.692],[38.979,-5.518],[38.821,-5.877],[38.803,-6.07],[38.875,-6.331],[39.127,-6.556],[39.289,-6.815],[39.473,-6.879],[39.545,-7.023],[39.289,-7.518],[39.285,-7.787],[39.332,-7.747],[39.429,-7.813],[39.44,-8.011],[39.303,-8.443],[39.379,-8.721],[39.487,-8.862],[39.451,-8.943],[39.642,-9.193],[39.624,-9.41],[39.775,-9.837],[39.725,-10.0],[39.865,-10.021],[39.984,-10.16],[40.085,-10.157],[40.218,-10.24],[40.387,-10.353],[40.463,-10.464],[39.987,-10.822],[39.563,-10.978],[39.321,-11.122],[38.796,-11.23],[38.493,-11.414],[38.177,-11.278],[37.921,-11.296],[37.831,-11.481],[37.727,-11.58],[37.374,-11.71],[37.219,-11.686],[36.978,-11.566],[36.773,-11.61],[36.675,-11.684],[36.305,-11.707],[35.912,-11.455],[35.786,-11.454],[35.563,-11.603],[34.958,-11.579],[34.89,-11.393],[34.775,-11.342],[34.609,-11.08],[34.663,-10.711],[34.584,-10.525],[34.569,-10.242],[34.523,-10.03],[34.321,-9.731],[33.997,-9.495],[33.943,-9.672],[33.698,-9.598],[33.468,-9.62],[33.331,-9.52],[33.129,-9.495],[32.975,-9.395],[32.607,-9.271]]],[[[39.509,-6.452],[39.422,-6.348],[39.383,-6.365],[39.314,-6.278],[39.242,-6.275],[39.181,-6.173],[39.192,-5.931],[39.311,-5.721],[39.433,-6.115],[39.498,-6.174],[39.573,-6.388],[39.509,-6.452]]],[[[39.865,-4.905],[39.854,-5.256],[39.75,-5.443],[39.645,-5.369],[39.699,-5.114],[39.674,-4.928],[39.865,-4.905]]]]}},{"type":"Feature","properties":{"NAME":"German South West Africa","SOURCE":"StuffApp hand overlay: modern outlines for the German colonies of 1885\u20131918","LABEL_AT":[-22.0,17.5]},"geometry":{"type":"Polygon","coordinates":[[[21.418,-18.0],[24.273,-17.481],[24.734,-17.517],[25.0,-17.568],[25.26,-17.793],[24.91,-17.821],[24.529,-18.052],[24.36,-17.977],[24.003,-18.154],[23.701,-18.424],[23.6,-18.46],[23.298,-18.028],[23.218,-18.0],[20.976,-18.319],[20.972,-22.0],[19.978,-22.0],[19.982,-28.451],[19.672,-28.505],[19.539,-28.574],[19.406,-28.715],[19.312,-28.734],[19.248,-28.902],[19.161,-28.939],[18.837,-28.869],[18.103,-28.871],[17.448,-28.699],[17.347,-28.501],[17.386,-28.354],[17.358,-28.27],[17.206,-28.199],[17.149,-28.083],[17.055,-28.031],[16.875,-28.128],[16.756,-28.452],[16.627,-28.487],[16.447,-28.617],[15.72,-27.966],[15.288,-27.275],[15.133,-26.788],[15.14,-26.508],[14.967,-26.319],[14.931,-25.958],[14.845,-25.725],[14.838,-25.033],[14.503,-24.203],[14.474,-23.281],[14.402,-22.968],[14.438,-22.88],[14.496,-22.922],[14.521,-22.805],[14.463,-22.449],[14.323,-22.191],[13.974,-21.767],[13.84,-21.474],[13.452,-20.916],[13.167,-20.184],[13.041,-20.028],[12.458,-18.927],[12.04,-18.47],[11.778,-18.002],[11.72,-17.467],[11.742,-17.25],[12.015,-17.168],[12.548,-17.212],[13.102,-16.967],[13.477,-17.04],[13.693,-17.233],[14.017,-17.41],[18.398,-17.399],[18.488,-17.443],[18.718,-17.703],[18.956,-17.804],[19.914,-17.882],[20.194,-17.863],[20.392,-17.887],[20.745,-18.019],[21.112,-17.957],[21.418,-18.0]]]}},{"type":"Feature","properties":{"NAME":"Kamerun","SOURCE":"StuffApp hand overlay: modern outlines for the German colonies of 1885\u20131918","LABEL_AT":[5.5,12.5]},"geometry":{"type":"Polygon","coordinates":[[[8.555,4.756],[8.8,5.198],[8.998,5.917],[9.373,6.32],[9.661,6.531],[9.779,6.761],[10.143,6.997],[10.204,6.891],[10.482,6.891],[10.608,7.063],[11.007,6.74],[11.108,6.459],[11.238,6.45],[11.479,6.597],[11.551,6.698],[11.58,6.889],[11.86,7.117],[11.767,7.273],[12.015,7.59],[12.026,7.728],[12.156,7.943],[12.235,8.283],[12.404,8.596],[12.584,8.623],[12.782,8.818],[12.876,9.304],[12.93,9.427],[13.2,9.564],[13.272,10.036],[13.416,10.172],[13.534,10.606],[13.891,11.141],[14.056,11.245],[14.204,11.269],[14.56,11.493],[14.618,12.151],[14.521,12.298],[14.197,12.384],[14.064,13.078],[14.463,13.022],[14.517,12.979],[14.546,12.821],[14.762,12.656],[14.848,12.502],[14.881,12.269],[15.082,11.845],[15.122,11.542],[15.028,11.115],[15.133,10.649],[15.277,10.358],[15.655,10.007],[15.54,9.96],[15.133,9.983],[14.838,9.941],[14.244,9.979],[13.977,9.691],[14.006,9.589],[14.334,9.203],[15.115,8.557],[15.442,7.853],[15.55,7.788],[15.558,7.738],[15.532,7.604],[15.378,7.358],[15.208,7.207],[15.036,6.785],[14.863,6.556],[14.766,6.316],[14.514,6.162],[14.431,6.038],[14.503,5.917],[14.618,5.865],[14.618,5.495],[14.564,5.28],[14.64,5.179],[14.708,4.665],[15.064,4.285],[15.136,4.037],[15.036,4.016],[15.061,3.947],[15.774,3.127],[15.903,3.096],[16.065,2.908],[16.108,2.473],[16.184,2.27],[16.069,2.021],[16.137,1.724],[16.058,1.676],[15.741,1.915],[15.601,1.95],[15.338,1.945],[15.162,2.035],[14.902,2.013],[14.874,2.08],[14.762,2.075],[14.578,2.198],[14.485,2.155],[13.293,2.162],[13.221,2.256],[11.558,2.303],[11.349,2.299],[11.328,2.167],[9.981,2.167],[9.869,2.214],[9.801,2.304],[9.884,2.917],[9.949,3.079],[9.916,3.24],[9.671,3.537],[9.765,3.624],[9.643,3.612],[9.556,3.797],[9.628,3.87],[9.74,3.853],[9.639,3.966],[9.689,4.056],[9.549,4.028],[9.484,4.066],[9.502,4.0],[9.427,3.922],[9.002,4.092],[8.912,4.358],[8.919,4.554],[8.761,4.58],[8.66,4.67],[8.689,4.551],[8.573,4.526],[8.534,4.606],[8.555,4.756]]]}},{"type":"Feature","properties":{"NAME":"Togoland","SOURCE":"StuffApp hand overlay: modern outlines for the German colonies of 1885\u20131918","LABEL_AT":[8.5,1.0]},"geometry":{"type":"Polygon","coordinates":[[[0.902,10.993],[0.787,10.71],[0.765,10.387],[1.33,9.997],[1.384,9.361],[1.6,9.05],[1.625,6.997],[1.532,6.993],[1.6,6.61],[1.744,6.426],[1.777,6.295],[1.186,6.089],[1.186,6.144],[1.049,6.203],[0.985,6.32],[0.736,6.453],[0.704,6.58],[0.524,6.851],[0.635,7.354],[0.509,7.436],[0.499,7.547],[0.607,7.728],[0.599,8.21],[0.689,8.304],[0.617,8.479],[0.484,8.575],[0.373,8.759],[0.488,8.851],[0.466,9.115],[0.527,9.399],[0.405,9.491],[0.261,9.425],[0.232,9.464],[0.275,9.571],[0.344,9.604],[0.265,9.644],[0.322,9.688],[0.38,10.292],[-0.059,10.63],[-0.092,10.715],[0.009,11.021],[-0.07,11.116],[0.484,10.991],[0.491,10.955],[0.902,10.993]]]}},{"type":"Feature","properties":{"NAME":"German Samoa","SOURCE":"StuffApp hand overlay: modern outlines for the German colonies of 1885\u20131918","LABEL_AT":[-13.7,-172.2]},"geometry":{"type":"MultiPolygon","coordinates":[[[[-172.332,-13.466],[-172.22,-13.559],[-172.177,-13.684],[-172.224,-13.804],[-172.537,-13.792],[-172.778,-13.518],[-172.332,-13.466]]],[[[-171.454,-14.047],[-171.911,-14.002],[-172.048,-13.858],[-171.857,-13.808],[-171.605,-13.879],[-171.565,-13.943],[-171.461,-13.978],[-171.454,-14.047]]]]}},{"type":"Feature","properties":{"NAME":"German New Guinea (Kaiser-Wilhelmsland)","SOURCE":"StuffApp hand overlay: modern outlines for the German colonies of 1885\u20131918","LABEL_AT":[-4.5,145.0]},"geometry":{"type":"MultiPolygon","coordinates":[[[[152.892,-4.832],[152.679,-4.499],[152.669,-4.131],[152.28,-3.582],[152.193,-3.506],[151.88,-3.4],[151.067,-2.829],[150.746,-2.739],[150.825,-2.713],[150.825,-2.572],[151.175,-2.789],[151.225,-2.871],[151.477,-2.942],[151.808,-3.173],[152.031,-3.251],[153.018,-4.105],[153.126,-4.253],[153.133,-4.353],[153.043,-4.477],[153.025,-4.666],[152.892,-4.832]]],[[[151.967,-4.317],[152.118,-4.213],[152.197,-4.286],[152.406,-4.341],[152.363,-4.49],[152.399,-4.732],[152.352,-4.822],[152.258,-4.954],[152.013,-5.004],[151.985,-5.074],[152.143,-5.357],[152.078,-5.459],[151.866,-5.565],[151.517,-5.553],[151.423,-5.747],[151.229,-5.919],[150.807,-6.072],[150.473,-6.263],[149.652,-6.291],[149.382,-6.079],[149.097,-6.117],[148.719,-5.867],[148.402,-5.765],[148.338,-5.669],[148.345,-5.544],[148.431,-5.471],[148.564,-5.508],[149.0,-5.485],[149.36,-5.584],[149.63,-5.516],[149.832,-5.523],[149.961,-5.447],[150.012,-5.14],[150.091,-5.011],[150.17,-5.07],[150.08,-5.187],[150.073,-5.31],[150.185,-5.523],[150.3,-5.535],[150.519,-5.461],[150.627,-5.522],[150.735,-5.511],[150.951,-5.424],[151.139,-5.114],[151.326,-4.961],[151.574,-4.938],[151.671,-4.883],[151.664,-4.636],[151.545,-4.299],[151.592,-4.201],[151.819,-4.216],[151.967,-4.317]]],[[[140.88,-6.6],[140.976,-6.346],[140.972,-2.61],[141.004,-2.61],[141.184,-2.628],[142.549,-3.204],[142.905,-3.32],[143.51,-3.431],[144.068,-3.805],[144.478,-3.826],[144.626,-3.994],[144.842,-4.102],[145.087,-4.35],[145.335,-4.385],[145.767,-4.824],[145.792,-5.178],[145.746,-5.402],[145.854,-5.471],[146.404,-5.617],[147.034,-5.919],[147.423,-5.966],[147.567,-6.056],[147.801,-6.315],[147.855,-6.551],[147.851,-6.6],[140.88,-6.6]]],[[[147.985,-5.834],[147.78,-5.627],[147.794,-5.492],[148.075,-5.65],[148.06,-5.765],[147.985,-5.834]]],[[[145.951,-4.756],[145.882,-4.667],[145.994,-4.539],[146.052,-4.64],[146.019,-4.727],[145.951,-4.756]]],[[[152.647,-3.221],[152.543,-3.096],[152.64,-3.043],[152.672,-3.133],[152.647,-3.221]]],[[[152.089,-2.997],[151.97,-2.897],[151.974,-2.846],[152.1,-2.947],[152.089,-2.997]]],[[[149.763,-1.59],[149.67,-1.576],[149.547,-1.472],[149.58,-1.353],[149.724,-1.43],[149.763,-1.59]]],[[[147.121,-5.437],[147.006,-5.306],[147.132,-5.19],[147.207,-5.251],[147.222,-5.381],[147.121,-5.437]]],[[[147.067,-1.959],[147.445,-2.011],[147.438,-2.058],[147.337,-2.065],[147.207,-2.182],[146.746,-2.149],[146.574,-2.211],[146.53,-2.154],[146.606,-2.102],[146.595,-2.017],[146.656,-1.973],[147.067,-1.959]]],[[[150.437,-2.662],[150.167,-2.661],[149.961,-2.473],[150.228,-2.385],[150.429,-2.47],[150.437,-2.662]]],[[[147.844,-2.336],[147.769,-2.331],[147.736,-2.315],[147.837,-2.247],[147.877,-2.284],[147.844,-2.336]]],[[[151.934,-2.831],[151.931,-2.751],[151.945,-2.709],[152.003,-2.737],[152.01,-2.81],[151.934,-2.831]]],[[[153.659,-4.1],[153.59,-4.096],[153.662,-4.041],[153.659,-4.1]]],[[[155.247,-6.6],[155.203,-6.308],[155.009,-6.209],[154.76,-5.931],[154.71,-5.747],[154.728,-5.445],[154.998,-5.541],[155.095,-5.621],[155.199,-5.829],[155.372,-5.975],[155.466,-6.145],[155.736,-6.296],[155.936,-6.6],[155.247,-6.6]]],[[[154.627,-5.44],[154.541,-5.11],[154.634,-5.015],[154.728,-5.218],[154.699,-5.383],[154.627,-5.44]]]]}},{"type":"Feature","properties":{"NAME":"British Papua","SOURCE":"StuffApp hand overlay: modern outlines for the German colonies of 1885\u20131918","LABEL_AT":[-8.0,145.5]},"geometry":{"type":"MultiPolygon","coordinates":[[[[140.976,-9.105],[140.976,-6.905],[140.864,-6.74],[140.88,-6.6],[147.851,-6.6],[147.812,-6.704],[147.121,-6.721],[146.955,-6.834],[146.962,-6.929],[147.189,-7.377],[147.726,-7.876],[148.125,-8.103],[148.248,-8.554],[148.453,-8.695],[148.582,-9.051],[148.68,-9.093],[149.198,-9.032],[149.248,-9.072],[149.263,-9.181],[149.202,-9.407],[149.263,-9.497],[149.475,-9.589],[150.012,-9.688],[149.983,-9.737],[149.76,-9.806],[149.875,-10.013],[150.365,-10.19],[150.667,-10.257],[150.851,-10.237],[150.638,-10.337],[150.447,-10.308],[150.411,-10.339],[150.491,-10.426],[150.649,-10.518],[150.483,-10.638],[150.321,-10.655],[150.015,-10.577],[149.752,-10.353],[148.935,-10.256],[148.654,-10.157],[148.431,-10.191],[148.269,-10.129],[147.769,-10.07],[147.553,-9.912],[147.409,-9.674],[147.016,-9.388],[146.926,-9.247],[146.962,-9.06],[146.854,-9.087],[146.631,-8.952],[146.034,-8.077],[145.728,-7.952],[144.975,-7.803],[144.885,-7.733],[144.864,-7.631],[144.511,-7.567],[144.45,-7.598],[144.432,-7.679],[144.352,-7.667],[144.226,-7.765],[144.144,-7.758],[143.899,-7.674],[143.654,-7.461],[143.942,-7.945],[143.841,-7.942],[143.888,-8.018],[143.834,-8.028],[143.517,-8.001],[143.614,-8.2],[143.096,-8.311],[142.707,-8.271],[142.524,-8.322],[142.448,-8.317],[142.347,-8.167],[142.207,-8.195],[142.326,-8.199],[142.473,-8.369],[142.797,-8.344],[143.11,-8.475],[143.377,-8.763],[143.366,-8.961],[142.646,-9.329],[142.228,-9.171],[141.62,-9.211],[141.404,-9.15],[141.134,-9.221],[140.976,-9.105]]],[[[151.124,-10.02],[151.257,-9.922],[151.297,-9.957],[151.232,-10.195],[150.959,-10.092],[150.951,-9.999],[150.775,-9.709],[151.124,-10.02]]],[[[150.332,-9.518],[150.109,-9.362],[150.134,-9.259],[150.21,-9.207],[150.321,-9.264],[150.357,-9.349],[150.332,-9.518]]],[[[151.124,-8.804],[151.045,-8.728],[151.085,-8.568],[151.005,-8.523],[151.117,-8.419],[151.124,-8.804]]],[[[154.267,-11.415],[154.065,-11.419],[154.022,-11.348],[154.119,-11.365],[154.101,-11.311],[154.238,-11.339],[154.281,-11.362],[154.267,-11.415]]],[[[143.586,-8.481],[143.366,-8.417],[143.323,-8.367],[143.582,-8.391],[143.586,-8.481]]],[[[150.671,-9.429],[150.789,-9.417],[150.879,-9.513],[150.894,-9.667],[150.843,-9.704],[150.847,-9.662],[150.437,-9.624],[150.509,-9.537],[150.433,-9.435],[150.437,-9.36],[150.53,-9.346],[150.671,-9.429]]],[[[152.514,-9.009],[152.809,-8.968],[152.953,-9.07],[152.996,-9.108],[152.967,-9.209],[152.867,-9.224],[152.719,-9.167],[152.64,-9.058],[152.514,-9.009]]],[[[153.205,-11.323],[153.759,-11.587],[153.554,-11.631],[153.378,-11.559],[153.356,-11.495],[153.288,-11.518],[153.324,-11.471],[153.234,-11.421],[153.205,-11.323]]],[[[143.607,-8.678],[143.254,-8.49],[143.208,-8.424],[143.442,-8.52],[143.607,-8.678]]],[[[150.883,-10.643],[150.786,-10.603],[150.8,-10.554],[150.897,-10.565],[150.883,-10.643]]],[[[155.934,-6.78],[155.891,-6.761],[155.718,-6.864],[155.52,-6.831],[155.343,-6.721],[155.261,-6.626],[155.21,-6.527],[155.247,-6.6],[155.936,-6.6],[155.934,-6.78]]]]}}]}